[{"OBJECT_NAME":"FLOCK 4Q-29","OBJECT_ID":"2023-174BA","EPOCH":"2026-03-09T17:08:34.461600","MEAN_MOTION":15.49539999,"ECCENTRICITY":0.00076444,"INCLINATION":97.3934,"RA_OF_ASC_NODE":157.4868,"ARG_OF_PERICENTER":141.6903,"MEAN_ANOMALY":218.4893,"EPHEMERIS_TYPE":0,"CLASSIFICATION_TYPE":"U","NORAD_CAT_ID":58304,"ELEMENT_SET_NO":999,"REV_AT_EPOCH":13032,"BSTAR":0.00060684089,"MEAN_MOTION_DOT":0.00033498,"MEAN_MOTION_DDOT":0},{"OBJECT_NAME":"COSMOS 2292","OBJECT_ID":"1994-061A","EPOCH":"2026-03-09T21:53:12.387552","MEAN_MOTION":13.70280339,"ECCENTRICITY":0.08227551,"INCLINATION":82.9767,"RA_OF_ASC_NODE":346.3461,"ARG_OF_PERICENTER":72.9828,"MEAN_ANOMALY":295.9747,"EPHEMERIS_TYPE":0,"CLASSIFICATION_TYPE":"U","NORAD_CAT_ID":23278,"ELEMENT_SET_NO":999,"REV_AT_EPOCH":54440,"BSTAR":0.00037499431,"MEAN_MOTION_DOT":4.63e-5,"MEAN_MOTION_DDOT":0}]
